O3B FM5                 
1 39188U 13031A   22266.42356747 -.00000022  00000+0  00000+0 0  9996
2 39188   0.0621  17.9764 0002610 168.1473 173.8763  5.00115337168862
O3B FM4                 
1 39189U 13031B   22267.07925919 -.00000020  00000+0  00000+0 0  9990
2 39189   0.0525 351.5957 0002565 194.6869 173.7177  5.00115856168919
O3B FM2                 
1 39190U 13031C   22267.17065694 -.00000020  00000+0  00000+0 0  9998
2 39190   0.0532 346.1998 0002587 199.0662 174.7349  5.00116898168973
O3B PFM                 
1 39191U 13031D   22267.19697354 -.00000020  00000+0  00000+0 0  9995
2 39191   0.0565  11.1103 0002644 172.2374 176.6542  5.00115723168527
O3B FM3                 
1 40079U 14038A   22267.05185710 -.00000020  00000+0  00000+0 0  9993
2 40079   0.0545 359.6353 0004895 170.1506 190.2276  5.00115364144906
O3B FM7                 
1 40080U 14038B   22267.19781873 -.00000020  00000+0  00000+0 0  9992
2 40080   0.0571 355.8556 0001715 233.3892 130.7439  5.00115491149735
O3B FM6                 
1 40081U 14038C   22266.42463401 -.00000022  00000+0  00000+0 0  9994
2 40081   0.0536 359.0368 0002701 185.2164 175.7477  5.00115399149656
O3B FM8                 
1 40082U 14038D   22267.07822860 -.00000020  00000+0  00000+0 0  9993
2 40082   0.0519 356.0865 0002638 185.1158 178.8006  5.00115724149809
O3B FM10                
1 40348U 14083A   22267.30418288 -.00000020  00000+0  00000+0 0  9999
2 40348   0.0519   8.6454 0002626 174.4892 176.8675  5.00115184141768
O3B FM11                
1 40349U 14083B   22267.11774441 -.00000020  00000+0  00000+0 0  9995
2 40349   0.0566   7.8630 0002508 191.4409 160.6902  5.00115405141771
O3B FM12                
1 40350U 14083C   22267.14495439 -.00000020  00000+0  00000+0 0  9997
2 40350   0.0559   7.1709 0002755 179.2738 173.5553  5.00115278141782
O3B FM9                 
1 40351U 14083D   22267.17183548 -.00000020  00000+0  00000+0 0  9996
2 40351   0.0577   8.0316 0002596 176.6601 175.3095  5.00116185141936
DIAMOND RED             
1 42783U 17036U   22267.39254899  .00009971  00000+0  35710-3 0  9993
2 42783  97.1913 304.8310 0009362 348.6148  11.4880 15.28906997292055
DIAMOND GREEN           
1 42785U 17036W   22267.06601139  .00010306  00000+0  36916-3 0  9995
2 42785  97.1914 304.5787 0009231 351.7819   8.3269 15.28892654292070
DIAMOND BLUE            
1 42786U 17036X   22267.06508288  .00010365  00000+0  37130-3 0  9991
2 42786  97.1916 304.5698 0009301 351.8806   8.2282 15.28886710292079
LEO VANTAGE 1           
1 43113U 18004C   22267.51331699  .00002227  00000+0  18510-3 0  9991
2 43113  99.2438 358.1248 0399576 253.6496 102.0419 14.54141073238633
O3B FM15                
1 43231U 18024A   22266.43821232 -.00000022  00000+0  00000+0 0  9994
2 43231   0.0485   9.7428 0002922 175.5496 174.7078  5.00116037 82854
O3B FM16                
1 43232U 18024B   22266.49160269 -.00000022  00000+0  00000+0 0  9997
2 43232   0.0450  12.3341 0002900 173.3570 174.3089  5.00115925 82770
O3B FM14                
1 43233U 18024C   22267.13091890 -.00000020  00000+0  00000+0 0  9991
2 43233   0.0435  12.7278 0002751 176.0549 171.2161  5.00115314 82811
O3B FM13                
1 43234U 18024D   22267.18443326 -.00000020  00000+0  00000+0 0  9992
2 43234   0.0556  22.5919 0003675 168.4756 168.9281  5.00114892 82937
O3B FM20                
1 44112U 19020A   22265.55850235 -.00000024  00000+0  00000+0 0  9999
2 44112   0.0515   7.9326 0003066 183.0346 169.0290  5.00115497 63358
O3B FM19                
1 44113U 19020B   22265.78519736 -.00000023  00000+0  00000+0 0  9992
2 44113   0.0703  21.4113 0001592 182.8288 155.7554  5.00115156 63231
O3B FM17                
1 44114U 19020C   22267.06504444 -.00000020  00000+0  00000+0 0  9993
2 44114   0.0366 351.1745 0003049 194.8995 173.9258  5.00115586 63384
O3B FM18                
1 44115U 19020D   22267.41134171 -.00000020  00000+0  00000+0 0  9999
2 44115   0.0519   8.2947 0002875 175.1120 176.5951  5.00115774 63521
SALSAT                  
1 46495U 20068K   22267.44866673  .00003176  00000+0  22843-3 0  9995
2 46495  97.7358 208.8292 0015040 305.7872  54.1955 15.04891286109072
